{
  "type": "FeatureCollection",
  "features": [
    {
      "type": "Feature",
      "geometry": {
        "type": "Polygon",
        "coordinates": [
          [
            [
              72.841262,
              19.121082
            ],
            [
              72.841555,
              19.117853
            ],
            [
              72.841798,
              19.116927
            ],
            [
              72.842219,
              19.115889
            ],
            [
              72.843628,
              19.115199
            ],
            [
              72.848213,
              19.114837
            ],
            [
              72.852601,
              19.116918
            ],
            [
              72.852445,
              19.121418
            ],
            [
              72.852373,
              19.122832
            ],
            [
              72.851492,
              19.123314
            ],
            [
              72.84745,
              19.12461
            ],
            [
              72.84342,
              19.123653
            ],
            [
              72.84177,
              19.123182
            ],
            [
              72.841262,
              19.121082
            ]
          ]
        ]
      },
      "properties": {
        "hotspot_id": "H01",
        "score": 73.9,
        "complaint_count": 44,
        "dominant_category": "Road",
        "risk_label": "High"
      }
    },
    {
      "type": "Feature",
      "geometry": {
        "type": "Polygon",
        "coordinates": [
          [
            [
              72.821807,
              19.059039
            ],
            [
              72.82469,
              19.056423
            ],
            [
              72.830524,
              19.05544
            ],
            [
              72.834258,
              19.058981
            ],
            [
              72.829884,
              19.063935
            ],
            [
              72.82652,
              19.062108
            ],
            [
              72.821807,
              19.059039
            ]
          ]
        ]
      },
      "properties": {
        "hotspot_id": "H02",
        "score": 49.6,
        "complaint_count": 15,
        "dominant_category": "Drainage",
        "risk_label": "Medium"
      }
    },
    {
      "type": "Feature",
      "geometry": {
        "type": "Polygon",
        "coordinates": [
          [
            [
              72.844326,
              19.190615
            ],
            [
              72.844817,
              19.185775
            ],
            [
              72.845439,
              19.184377
            ],
            [
              72.849832,
              19.186599
            ],
            [
              72.851282,
              19.189215
            ],
            [
              72.848689,
              19.190865
            ],
            [
              72.844326,
              19.190615
            ]
          ]
        ]
      },
      "properties": {
        "hotspot_id": "H03",
        "score": 28.3,
        "complaint_count": 11,
        "dominant_category": "Garbage",
        "risk_label": "Low"
      }
    }
  ]
}